start=new Date('2023-01-27T00:00:00.000Z').valueOf();
sats=[{"ELEMENT_SET_NO":"999","MEAN_ANOMALY":"255.7023","PERIOD":"95.593","ARG_OF_PERICENTER":"104.4096","TLE_LINE2":"2 45376  53.0549 233.8490 0001169 104.4096 255.7023 15.06394132158252","ECCENTRICITY":"0.00011690","REF_FRAME":"TEME","FILE":"3762298","INCLINATION":"53.0549","LAUNCH_DATE":"2020-03-18","NORAD_CAT_ID":"45376","SITE":"AFETR","EPOCH":"2023-01-27T00:17:30.081408","CENTER_NAME":"EARTH","OBJECT_ID":"2020-019S","MEAN_MOTION_DDOT":"0.0000000000000","COUNTRY_CODE":"US","CLASSIFICATION_TYPE":"U","OBJECT_TYPE":"PAYLOAD","OBJECT_NAME":"STARLINK-1304","MEAN_MOTION":"15.06394132","SEMIMAJOR_AXIS":"6925.367","REV_AT_EPOCH":"15825","RCS_SIZE":"LARGE","GP_ID":"223768629","EPHEMERIS_TYPE":"0","MEAN_MOTION_DOT":"0.00000348","MEAN_ELEMENT_THEORY":"SGP4","TLE_LINE1":"1 45376U 20019S   23027.01215372  .00000348  00000-0  42254-4 0  9998","TIME_SYSTEM":"UTC","APOAPSIS":"548.041","BSTAR":"0.00004225400000","DECAY_DATE":null,"RA_OF_ASC_NODE":"233.8490","PERIAPSIS":"546.422"},{"PERIOD":"95.591","ARG_OF_PERICENTER":"81.5542","MEAN_ANOMALY":"278.5551","INCLINATION":"53.0539","FILE":"3762298","TLE_LINE2":"2 45377  53.0539 234.6230 0000922  81.5542 278.5551 15.06416948158237","REF_FRAME":"TEME","ECCENTRICITY":"0.00009220","ELEMENT_SET_NO":"999","SITE":"AFETR","CENTER_NAME":"EARTH","MEAN_MOTION_DDOT":"0.0000000000000","OBJECT_ID":"2020-019T","EPOCH":"2023-01-26T20:08:01.266720","NORAD_CAT_ID":"45377","LAUNCH_DATE":"2020-03-18","MEAN_MOTION":"15.06416948","REV_AT_EPOCH":"15823","SEMIMAJOR_AXIS":"6925.297","COUNTRY_CODE":"US","CLASSIFICATION_TYPE":"U","OBJECT_NAME":"STARLINK-1305","OBJECT_TYPE":"PAYLOAD","APOAPSIS":"547.800","TLE_LINE1":"1 45377U 20019T   23026.83890355 -.00001754  00000-0 -98880-4 0  9998","TIME_SYSTEM":"UTC","DECAY_DATE":null,"RA_OF_ASC_NODE":"234.6230","PERIAPSIS":"546.523","BSTAR":"-0.00009888000000","EPHEMERIS_TYPE":"0","GP_ID":"223768434","RCS_SIZE":"LARGE","MEAN_ELEMENT_THEORY":"SGP4","MEAN_MOTION_DOT":"-0.00001754"},{"BSTAR":"0.00012387000000","DECAY_DATE":null,"PERIAPSIS":"546.401","RA_OF_ASC_NODE":"234.3842","TLE_LINE1":"1 45378U 20019U   23026.89419642  .00001564  00000-0  12387-3 0  9995","TIME_SYSTEM":"UTC","APOAPSIS":"548.002","MEAN_MOTION_DOT":"0.00001564","MEAN_ELEMENT_THEORY":"SGP4","RCS_SIZE":"LARGE","GP_ID":"223768431","EPHEMERIS_TYPE":"0","SEMIMAJOR_AXIS":"6925.337","REV_AT_EPOCH":"15824","MEAN_MOTION":"15.06403837","OBJECT_TYPE":"PAYLOAD","OBJECT_NAME":"STARLINK-1310","CLASSIFICATION_TYPE":"U","COUNTRY_CODE":"US","EPOCH":"2023-01-26T21:27:38.570688","CENTER_NAME":"EARTH","MEAN_MOTION_DDOT":"0.0000000000000","OBJECT_ID":"2020-019U","SITE":"AFETR","LAUNCH_DATE":"2020-03-18","NORAD_CAT_ID":"45378","TLE_LINE2":"2 45378  53.0527 234.3842 0001156  79.3076 280.8043 15.06403837158244","ECCENTRICITY":"0.00011560","REF_FRAME":"TEME","FILE":"3762298","INCLINATION":"53.0527","MEAN_ANOMALY":"280.8043","PERIOD":"95.592","ARG_OF_PERICENTER":"79.3076","ELEMENT_SET_NO":"999"},{"LAUNCH_DATE":"2020-03-18","NORAD_CAT_ID":"45379","SITE":"AFETR","EPOCH":"2023-01-26T19:57:25.272000","MEAN_MOTION_DDOT":"0.0000000000000","OBJECT_ID":"2020-019V","CENTER_NAME":"EARTH","ELEMENT_SET_NO":"999","MEAN_ANOMALY":"265.7461","ARG_OF_PERICENTER":"94.3650","PERIOD":"95.591","TLE_LINE2":"2 45379  53.0537 234.6617 0001066  94.3650 265.7461 15.06413770158236","ECCENTRICITY":"0.00010660","REF_FRAME":"TEME","INCLINATION":"53.0537","FILE":"3762170","GP_ID":"223765640","RCS_SIZE":"LARGE","EPHEMERIS_TYPE":"0","MEAN_MOTION_DOT":"0.00004884","MEAN_ELEMENT_THEORY":"SGP4","TIME_SYSTEM":"UTC","TLE_LINE1":"1 45379U 20019V   23026.83154250  .00004884  00000-0  34641-3 0  9996","APOAPSIS":"547.910","BSTAR":"0.00034641000000","DECAY_DATE":null,"PERIAPSIS":"546.433","RA_OF_ASC_NODE":"234.6617","COUNTRY_CODE":"US","CLASSIFICATION_TYPE":"U","OBJECT_TYPE":"PAYLOAD","OBJECT_NAME":"STARLINK-1319","MEAN_MOTION":"15.06413770","SEMIMAJOR_AXIS":"6925.306","REV_AT_EPOCH":"15823"},{"MEAN_MOTION":"15.06402468","SEMIMAJOR_AXIS":"6925.341","REV_AT_EPOCH":"15851","CLASSIFICATION_TYPE":"U","COUNTRY_CODE":"US","OBJECT_TYPE":"PAYLOAD","OBJECT_NAME":"STARLINK-1207","TLE_LINE1":"1 45380U 20019W   23026.82969123  .00001294  00000-0  10576-3 0  9993","TIME_SYSTEM":"UTC","APOAPSIS":"547.876","BSTAR":"0.00010576000000","DECAY_DATE":null,"RA_OF_ASC_NODE":"214.6749","PERIAPSIS":"546.536","RCS_SIZE":"LARGE","GP_ID":"223769192","EPHEMERIS_TYPE":"0","MEAN_MOTION_DOT":"0.00001294","MEAN_ELEMENT_THEORY":"SGP4","MEAN_ANOMALY":"261.6875","PERIOD":"95.592","ARG_OF_PERICENTER":"98.4224","ECCENTRICITY":"0.00009670","TLE_LINE2":"2 45380  53.0530 214.6749 0000967  98.4224 261.6875 15.06402468158513","REF_FRAME":"TEME","INCLINATION":"53.0530","FILE":"3762318","ELEMENT_SET_NO":"999","SITE":"AFETR","EPOCH":"2023-01-26T19:54:45.322272","CENTER_NAME":"EARTH","MEAN_MOTION_DDOT":"0.0000000000000","OBJECT_ID":"2020-019W","LAUNCH_DATE":"2020-03-18","NORAD_CAT_ID":"45380"},{"SEMIMAJOR_AXIS":"6925.359","REV_AT_EPOCH":"15846","MEAN_MOTION":"15.06396629","OBJECT_TYPE":"PAYLOAD","OBJECT_NAME":"STARLINK-1258","CLASSIFICATION_TYPE":"U","COUNTRY_CODE":"US","BSTAR":"0.00007969600000","PERIAPSIS":"546.380","DECAY_DATE":null,"RA_OF_ASC_NODE":"215.8226","TLE_LINE1":"1 45381U 20019X   23026.57536774  .00000906  00000-0  79696-4 0  9996","TIME_SYSTEM":"UTC","APOAPSIS":"548.068","MEAN_MOTION_DOT":"0.00000906","MEAN_ELEMENT_THEORY":"SGP4","RCS_SIZE":"LARGE","GP_ID":"223761673","EPHEMERIS_TYPE":"0","TLE_LINE2":"2 45381  53.0516 215.8226 0001219  87.4140 272.6988 15.06396629158469","ECCENTRICITY":"0.00012190","REF_FRAME":"TEME","FILE":"3762006","INCLINATION":"53.0516","MEAN_ANOMALY":"272.6988","ARG_OF_PERICENTER":"87.4140","PERIOD":"95.592","ELEMENT_SET_NO":"999","EPOCH":"2023-01-26T13:48:31.772736","CENTER_NAME":"EARTH","MEAN_MOTION_DDOT":"0.0000000000000","OBJECT_ID":"2020-019X","SITE":"AFETR","LAUNCH_DATE":"2020-03-18","NORAD_CAT_ID":"45381"},{"MEAN_MOTION_DOT":"0.00038895","MEAN_ELEMENT_THEORY":"SGP4","GP_ID":"223768358","RCS_SIZE":"LARGE","EPHEMERIS_TYPE":"0","BSTAR":"0.00219440000000","DECAY_DATE":null,"RA_OF_ASC_NODE":"211.4224","PERIAPSIS":"526.851","TIME_SYSTEM":"UTC","TLE_LINE1":"1 45382U 20019Y   23026.97092586  .00038895  00000-0  21944-2 0  9998","APOAPSIS":"528.425","OBJECT_TYPE":"PAYLOAD","OBJECT_NAME":"STARLINK-1264","CLASSIFICATION_TYPE":"U","COUNTRY_CODE":"US","SEMIMAJOR_AXIS":"6905.773","REV_AT_EPOCH":"15838","MEAN_MOTION":"15.12809672","LAUNCH_DATE":"2020-03-18","NORAD_CAT_ID":"45382","EPOCH":"2023-01-26T23:18:07.994304","MEAN_MOTION_DDOT":"0.0000000000000","OBJECT_ID":"2020-019Y","CENTER_NAME":"EARTH","SITE":"AFETR","ELEMENT_SET_NO":"999","REF_FRAME":"TEME","TLE_LINE2":"2 45382  53.0493 211.4224 0001140 115.5972 244.5138 15.12809672158383","ECCENTRICITY":"0.00011400","FILE":"3762290","INCLINATION":"53.0493","MEAN_ANOMALY":"244.5138","ARG_OF_PERICENTER":"115.5972","PERIOD":"95.187"},{"EPOCH":"2023-01-26T13:37:54.595200","CENTER_NAME":"EARTH","OBJECT_ID":"2020-019Z","MEAN_MOTION_DDOT":"0.0000000000000","SITE":"AFETR","LAUNCH_DATE":"2020-03-18","NORAD_CAT_ID":"45383","ECCENTRICITY":"0.00013840","TLE_LINE2":"2 45383  53.0519 215.8546 0001384  85.3617 274.7530 15.06391032158467","REF_FRAME":"TEME","FILE":"3762003","INCLINATION":"53.0519","MEAN_ANOMALY":"274.7530","PERIOD":"95.593","ARG_OF_PERICENTER":"85.3617","ELEMENT_SET_NO":"999","BSTAR":"-0.00003072400000","DECAY_DATE":null,"RA_OF_ASC_NODE":"215.8546","PERIAPSIS":"546.283","TLE_LINE1":"1 45383U 20019Z   23026.56799300 -.00000739  00000-0 -30724-4 0  9998","TIME_SYSTEM":"UTC","APOAPSIS":"548.200","MEAN_MOTION_DOT":"-0.00000739","MEAN_ELEMENT_THEORY":"SGP4","GP_ID":"223761680","RCS_SIZE":"LARGE","EPHEMERIS_TYPE":"0","SEMIMAJOR_AXIS":"6925.376","REV_AT_EPOCH":"15846","MEAN_MOTION":"15.06391032","OBJECT_TYPE":"PAYLOAD","OBJECT_NAME":"STARLINK-1266","COUNTRY_CODE":"US","CLASSIFICATION_TYPE":"U"},{"COUNTRY_CODE":"US","CLASSIFICATION_TYPE":"U","OBJECT_TYPE":"PAYLOAD","OBJECT_NAME":"STARLINK-1267","MEAN_MOTION":"15.06378931","SEMIMAJOR_AXIS":"6925.413","REV_AT_EPOCH":"15850","GP_ID":"223768368","RCS_SIZE":"LARGE","EPHEMERIS_TYPE":"0","MEAN_MOTION_DOT":"0.00000193","MEAN_ELEMENT_THEORY":"SGP4","TIME_SYSTEM":"UTC","TLE_LINE1":"1 45384U 20019AA  23026.82137753  .00000193  00000-0  31862-4 0  9992","APOAPSIS":"548.017","BSTAR":"0.00003186200000","DECAY_DATE":null,"PERIAPSIS":"546.539","RA_OF_ASC_NODE":"214.7058","ELEMENT_SET_NO":"999","MEAN_ANOMALY":"269.0745","PERIOD":"95.593","ARG_OF_PERICENTER":"91.0366","REF_FRAME":"TEME","TLE_LINE2":"2 45384  53.0522 214.7058 0001067  91.0366 269.0745 15.06378931158504","ECCENTRICITY":"0.00010670","FILE":"3762294","INCLINATION":"53.0522","LAUNCH_DATE":"2020-03-18","NORAD_CAT_ID":"45384","SITE":"AFETR","EPOCH":"2023-01-26T19:42:47.018592","MEAN_MOTION_DDOT":"0.0000000000000","OBJECT_ID":"2020-019AA","CENTER_NAME":"EARTH"},{"NORAD_CAT_ID":"45386","LAUNCH_DATE":"2020-03-18","MEAN_MOTION_DDOT":"0.0000000000000","OBJECT_ID":"2020-019AC","CENTER_NAME":"EARTH","EPOCH":"2023-01-26T11:51:45.183744","SITE":"AFETR","ELEMENT_SET_NO":"999","INCLINATION":"53.0536","FILE":"3761951","TLE_LINE2":"2 45386  53.0536 216.1737 0001056  85.8833 274.2276 15.06399059158454","REF_FRAME":"TEME","ECCENTRICITY":"0.00010560","PERIOD":"95.592","ARG_OF_PERICENTER":"85.8833","MEAN_ANOMALY":"274.2276","MEAN_ELEMENT_THEORY":"SGP4","MEAN_MOTION_DOT":"0.00001336","EPHEMERIS_TYPE":"0","GP_ID":"223754375","RCS_SIZE":"LARGE","DECAY_DATE":null,"RA_OF_ASC_NODE":"216.1737","PERIAPSIS":"546.485","BSTAR":"0.00010857000000","APOAPSIS":"547.948","TIME_SYSTEM":"UTC","TLE_LINE1":"1 45386U 20019AC  23026.49427296  .00001336  00000-0  10857-3 0  9991","OBJECT_NAME":"STARLINK-1272","OBJECT_TYPE":"PAYLOAD","COUNTRY_CODE":"US","CLASSIFICATION_TYPE":"U","REV_AT_EPOCH":"15845","SEMIMAJOR_AXIS":"6925.351","MEAN_MOTION":"15.06399059"}];
